#aV2023 10 24  0  0  0.00000000     288 DD+AD WGS84 FIT  NGA
## 2285 172800.00000000   300.00000000 60241 0.0000000000000
+   32     1  2  3  4  5  6  7  8  9 10 11 12 13 14 15 16 17
+         18 19 20 21 22 23 24 25 26 27 28 29 30 31 32  0  0
+          0  0  0  0  0  0  0  0  0  0  0  0  0  0  0  0  0
+          0  0  0  0  0  0  0  0  0  0  0  0  0  0  0  0  0
+          0  0  0  0  0  0  0  0  0  0  0  0  0  0  0  0  0
++         2  2  2  2  2  2  2  2  2  2  2  2  2  2  2  2  2
++         2  2  2  2  2  2  2  2  2  2  2  2  2  2  2  0  0
++         0  0  0  0  0  0  0  0  0  0  0  0  0  0  0  0  0
++         0  0  0  0  0  0  0  0  0  0  0  0  0  0  0  0  0
++         0  0  0  0  0  0  0  0  0  0  0  0  0  0  0  0  0
%c cc cc ccc ccc cccc cccc cccc cccc ccccc ccccc ccccc ccccc
%c cc cc ccc ccc cccc cccc cccc cccc ccccc ccccc ccccc ccccc
%f  0.0000000  0.000000000  0.00000000000  0.000000000000000
%f  0.0000000  0.000000000  0.00000000000  0.000000000000000
%i    0    0    0    0      0      0      0      0         0
%i    0    0    0    0      0      0      0      0         0
/*      NGA, ST. LOUIS,MO.                                  
/*   EPHEMERIS COMPUTED FROM 2 DAYS OF DATA                 
/*   EPOCHA v8 SMOOTHER                                     
/*   G2139 IERS2010 SATIGS SATAPC                           
*  2023 10 24 20 45  0.00000000
P  1 -20990.558941 -15110.209834  -7125.728208    163.426057                    
V  1   8278.677827   2333.639402 -30499.943670     -0.002825                    
P  2 -17765.186314 -15232.235022 -12235.783544   -537.877995                    
V  2  16045.141895   3396.459070 -26260.019967      0.048320                    
P  3 -11966.563921 -18232.195541  15086.795089    -58.617728                    
V  3   -372.671210 -19395.089729 -23401.664278      0.236026                    
P  4 -15203.882471  -7082.493712  20630.004534    193.750415                    
V  4  21259.936259 -15234.703019  10316.665730      0.106838                    
P  5   5819.726368  25725.860125  -2846.958892   -147.761901                    
V  5  -2100.203189   3751.578311  31707.066944     -0.014510                    
P  6 -12225.489527   9885.514992  21492.290688    523.049499                    
V  6 -24339.172071 -11764.339418  -8369.678778     -0.089109                    
P  7 -24855.557857  -4637.165038  -8408.536936     31.609288                    
V  7  -9137.860973  -7001.527858  28752.712779     -0.101344                    
P  8  -6814.776299 -13969.462476 -21580.500923   -148.751085                    
V  8  21968.611489 -16177.687679   3948.972222     -0.018859                    
P  9 -21484.640823   2701.940035  15331.311228    -23.015920                    
V  9  14385.463789 -13492.680285  22352.159446      0.109220                    
P 10  11354.387248 -14218.851714 -19039.067334    -58.658000                    
V 10   3810.752030  24372.891009 -16093.737802     -0.015011                    
P 11    712.504119  16513.548815  20819.741678   -429.957999                    
V 11 -23839.128111 -11289.032380   9726.245797     -0.169852                    
P 12   9837.348032  20693.675305  13222.042857   -439.505716                    
V 12  -1634.433767  17268.909424 -25213.562126     -0.041844                    
P 13  -4016.238879  17426.571051 -19766.766005    587.710093                    
V 13 -22402.773953  10484.068083  14144.479597      0.042467                    
P 14 -13713.431475  10529.955458 -20093.845605    223.558122                    
V 14  -3119.988784 -25499.394890 -11389.757651      0.109713                    
P 15   9570.463971  12987.752063 -21576.756524     90.342811                    
V 15 -19207.785626  18096.103996   2657.956070      0.037411                    
P 16    860.781209 -26214.574201   1756.101936   -433.753722                    
V 16   3164.197673   2594.469338  32018.829860      0.062622                    
P 17 -22940.149309  13399.609341  -1328.843658    723.726357                    
V 17    596.035416  -3195.336695 -31861.798274     -0.002002                    
P 18  24074.875920   3131.507988 -10976.927638   -458.834522                    
V 18  11715.333078   7668.305715  27679.436122     -0.114708                    
P 19 -19625.687263  16308.240857   6496.521915    389.473221                    
V 19  -8786.519900   1902.625393 -30746.486923      0.052111                    
P 20   -273.793810  24820.836098   9749.617726    405.136640                    
V 20  -5861.222333 -11104.704672  28048.022298     -0.019400                    
P 21 -15342.445957 -16131.370535 -14632.189069    145.993758                    
V 21  18586.644004   4764.622436 -23008.570278     -0.009142                    
P 22 -11007.828396  17777.416738 -16090.600212     96.712623                    
V 22  -2019.194868 -21142.593975 -21106.126232     -0.071387                    
P 23  14927.783546   -426.299795 -21961.199443     87.788180                    
V 23   3564.484896  27624.231847   1708.726318      0.059685                    
P 24  18628.807958  15534.879683 -11685.933162   -354.460142                    
V 24 -14249.409083  -2087.057387 -25957.019686     -0.095708                    
P 25  15222.077243   8233.136600  19898.705517    474.273270                    
V 25   1911.479630  25888.314438 -11716.420716      0.017713                    
P 26   5079.166976 -22842.196989  12092.903805    221.176060                    
V 26   6022.770863  14936.370892  25770.202536     -0.023778                    
P 27   6554.576995 -19343.471684 -17004.041785    -60.054983                    
V 27  18284.555275 -11005.401381  20275.406925     -0.056243                    
P 28  14035.618724  -9609.021345  20376.193281    -31.785770                    
V 28  23614.938389  10736.009170 -11189.828115     -0.074342                    
P 29  21554.386154   -810.780746  15524.423361   -610.176845                    
V 29 -15973.132277  11680.379030  22622.543426     -0.000943                    
P 30 -20293.245380   4212.235713 -16634.570044   -475.335751                    
V 30 -18512.983869 -10796.049266  19444.254266      0.038050                    
P 31   5267.486925 -14354.333677  21503.499169   -225.021360                    
V 31  25266.144738  11641.536377   1977.273410     -0.004376                    
P 32  20529.441331 -16598.497034   1729.993344   -577.095229                    
V 32   3385.392376   1241.406340 -31777.329391     -0.050228                    
EOF
